NORAD_CAT_ID,OBJECT_NAME,OBJECT_TYPE,EPOCH,MEAN_MOTION,ECCENTRICITY,INCLINATION,RA_OF_ASC_NODE,ARG_OF_PERICENTER,MEAN_ANOMALY,BSTAR,MEAN_MOTION_DOT,MEAN_MOTION_DDOT,TLE_LINE0,TLE_LINE1,TLE_LINE2,SEMIMAJOR_AXIS,PERIOD,APOGEE,PERIGEE,DECAYED
52127.0,STARLINK-3715,PAYLOAD,2023-06-09 06:54:39,15.08838629,0.000174,53.2126,258.0553,101.6491,258.4696,2.9362e-05,1.79e-06,0.0,0 STARLINK-3715,1 52127U 22029AR  23160.28795613  .00000179  00000-0  29362-4 0  9998,2 52127  53.2126 258.0553 0001740 101.6491 258.4696 15.08838629 69296,6917.885,95.438,540.953,538.546,0.0
52127.0,STARLINK-3715,PAYLOAD,2023-06-09 13:16:12,15.08836198,0.0001708,53.2129,256.8656,93.7709,266.3478,-3.0957e-05,-7.81e-06,0.0,0 STARLINK-3715,1 52127U 22029AR  23160.55291770 -.00000781  00000-0 -30957-4 0  9996,2 52127  53.2129 256.8656 0001708  93.7709 266.3478 15.08836198 69336,6917.892,95.438,540.939,538.575,0.0
52127.0,STARLINK-3715,PAYLOAD,2023-06-09 16:26:58,15.08833873,0.0001058,53.2153,256.2714,87.329,272.7824,-7.7841e-05,-1.526e-05,0.0,0 STARLINK-3715,1 52127U 22029AR  23160.68539881 -.00001526  00000-0 -77841-4 0  9999,2 52127  53.2153 256.2714 0001058  87.3290 272.7824 15.08833873 69359,6917.899,95.438,540.496,539.032,0.0
52127.0,STARLINK-3715,PAYLOAD,2023-06-10 13:06:59,15.08842539,0.0001042,53.2155,252.4063,90.1357,269.9755,0.00013377,1.842e-05,0.0,0 STARLINK-3715,1 52127U 22029AR  23161.54651801  .00001842  00000-0  13377-3 0  9994,2 52127  53.2155 252.4063 0001042  90.1357 269.9755 15.08842539 69489,6917.873,95.437,540.458,539.017,0.0
52127.0,STARLINK-3715,PAYLOAD,2023-06-10 14:42:22,15.08844033,9.85e-05,53.2157,252.1089,83.5295,276.5809,0.00014124,1.961e-05,0.0,0 STARLINK-3715,1 52127U 22029AR  23161.61275759  .00001961  00000-0  14124-3 0  9999,2 52127  53.2157 252.1089 0000985  83.5295 276.5809 15.08844033 69494,6917.868,95.437,540.414,539.052,0.0
52127.0,STARLINK-3715,PAYLOAD,2023-06-11 01:50:05,15.08819904,0.0001282,53.2156,250.028,99.819,260.2947,0.0010538,0.00016514,0.0,0 STARLINK-3715,1 52127U 22029AR  23162.07645690  .00016514  00000-0  10538-2 0  9999,2 52127  53.2156 250.0280 0001282  99.8190 260.2947 15.08819904 69568,6917.942,95.439,540.694,538.92,0.0
52127.0,STARLINK-3715,PAYLOAD,2023-06-11 12:57:46,15.08843689,0.0001077,53.2156,247.9464,85.36,274.7515,0.00030786,4.616e-05,0.0,0 STARLINK-3715,1 52127U 22029AR  23162.54012121  .00004616  00000-0  30786-3 0  9996,2 52127  53.2156 247.9464 0001077  85.3600 274.7515 15.08843689 69631,6917.869,95.437,540.479,538.989,0.0
52127.0,STARLINK-3715,PAYLOAD,2023-06-11 14:33:09,15.08845124,0.0001088,53.2156,247.6491,84.9337,275.178,0.00032322,4.861e-05,0.0,0 STARLINK-3715,1 52127U 22029AR  23162.60636079  .00004861  00000-0  32322-3 0  9997,2 52127  53.2156 247.6491 0001088  84.9337 275.1780 15.08845124 69648,6917.865,95.437,540.482,538.977,0.0
52127.0,STARLINK-3715,PAYLOAD,2023-06-11 22:30:05,15.08842517,0.0001073,53.2156,246.1623,84.5836,275.5279,0.00019917,2.884e-05,0.0,0 STARLINK-3715,1 52127U 22029AR  23162.93756149  .00002884  00000-0  19917-3 0  9992,2 52127  53.2156 246.1623 0001073  84.5836 275.5279 15.08842517 69698,6917.873,95.437,540.48,538.995,0.0
52127.0,STARLINK-3715,PAYLOAD,2023-06-12 22:20:52,15.08842138,0.0001033,53.2161,241.7031,91.6906,268.4204,0.00010241,1.343e-05,0.0,0 STARLINK-3715,1 52127U 22029AR  23163.93116079  .00001343  00000-0  10241-3 0  9995,2 52127  53.2161 241.7031 0001033  91.6906 268.4204 15.08842138 69846,6917.874,95.437,540.453,539.024,0.0
52127.0,STARLINK-3715,PAYLOAD,2023-06-13 23:47:02,15.08838927,0.0001113,53.2151,236.9425,86.3991,273.7128,7.7834e-05,9.51e-06,0.0,0 STARLINK-3715,1 52127U 22029AR  23164.99100618  .00000951  00000-0  77834-4 0  9990,2 52127  53.2151 236.9425 0001113  86.3991 273.7128 15.08838927 70007,6917.884,95.438,540.519,538.979,0.0
52127.0,STARLINK-3715,PAYLOAD,2023-06-14 04:33:12,15.08838225,0.0001106,53.2159,236.0509,85.4252,274.6867,6.3199e-05,7.18e-06,0.0,0 STARLINK-3715,1 52127U 22029AR  23165.18972725  .00000718  00000-0  63199-4 0  9998,2 52127  53.2159 236.0509 0001106  85.4252 274.6867 15.08838225 70035,6917.886,95.438,540.516,538.986,0.0
52127.0,STARLINK-3715,PAYLOAD,2023-06-15 09:10:09,15.08836414,0.0001079,53.2155,230.6989,86.3754,273.7362,0.00014129,1.961e-05,0.0,0 STARLINK-3715,1 52127U 22029AR  23166.38205177  .00001961  00000-0  14129-3 0  9990,2 52127  53.2155 230.6989 0001079  86.3754 273.7362 15.08836414 70217,6917.891,95.438,540.503,539.01,0.0
52127.0,STARLINK-3715,PAYLOAD,2023-06-15 10:45:32,15.08837631,0.0001208,53.216,230.4035,75.4008,284.7118,0.00011369,1.522e-05,0.0,0 STARLINK-3715,1 52127U 22029AR  23166.44829215  .00001522  00000-0  11369-3 0  9998,2 52127  53.2160 230.4035 0001208  75.4008 284.7118 15.08837631 70222,6917.888,95.438,540.588,538.917,0.0
52127.0,STARLINK-3715,PAYLOAD,2023-06-16 10:36:18,15.08853014,0.0001082,53.2153,225.9412,85.914,274.1976,0.00026017,3.857e-05,0.0,0 STARLINK-3715,1 52127U 22029AR  23167.44188301  .00003857  00000-0  26017-3 0  9992,2 52127  53.2153 225.9412 0001082  85.9140 274.1976 15.08853014 70379,6917.841,95.437,540.454,538.957,0.0
52127.0,STARLINK-3715,PAYLOAD,2023-06-16 12:11:41,15.0885446,0.0001163,53.2159,225.6438,88.9766,271.1359,0.00028228,4.209e-05,0.0,0 STARLINK-3715,1 52127U 22029AR  23167.50812230  .00004209  00000-0  28228-3 0  9992,2 52127  53.2159 225.6438 0001163  88.9766 271.1359 15.08854460 70386,6917.836,95.437,540.506,538.897,0.0
52127.0,STARLINK-3715,PAYLOAD,2023-06-16 23:19:24,15.0884441,0.0001113,53.2155,223.5623,88.687,271.4249,0.00015463,2.174e-05,0.0,0 STARLINK-3715,1 52127U 22029AR  23167.97180604  .00002174  00000-0  15463-3 0  9992,2 52127  53.2155 223.5623 0001113  88.6870 271.4249 15.08844410 70456,6917.867,95.437,540.502,538.962,0.0
52127.0,STARLINK-3715,PAYLOAD,2023-06-17 10:27:06,15.08835681,8.32e-05,53.2161,221.4809,90.6889,269.4198,8.1739e-06,-1.58e-06,0.0,0 STARLINK-3715,1 52127U 22029AR  23168.43549096 -.00000158  00000-0  81739-5 0  9990,2 52127  53.2161 221.4809 0000832  90.6889 269.4198 15.08835681 70524,6917.894,95.438,540.334,539.183,0.0
52127.0,STARLINK-3715,PAYLOAD,2023-06-17 19:59:25,15.0883661,0.0001029,53.2152,219.6969,93.7135,266.3975,-2.5168e-05,-6.88e-06,0.0,0 STARLINK-3715,1 52127U 22029AR  23168.83293016 -.00000688  00000-0 -25168-4 0  9994,2 52127  53.2152 219.6969 0001029  93.7135 266.3975 15.08836610 70585,6917.891,95.438,540.468,539.044,0.0
52127.0,STARLINK-3715,PAYLOAD,2023-06-18 10:17:53,15.08840364,0.0001041,53.215,217.0208,95.8701,264.241,7.092e-05,8.41e-06,0.0,0 STARLINK-3715,1 52127U 22029AR  23169.42908971  .00000841  00000-0  70920-4 0  9998,2 52127  53.2150 217.0208 0001041  95.8701 264.2410 15.08840364 70679,6917.879,95.438,540.464,539.024,0.0
52127.0,STARLINK-3715,PAYLOAD,2023-06-18 19:50:12,15.08841124,0.0001025,53.2151,215.2367,93.5058,266.6051,1.8641e-06,-2.58e-06,0.0,0 STARLINK-3715,1 52127U 22029AR  23169.82652953 -.00000258  00000-0  18641-5 0  9994,2 52127  53.2151 215.2367 0001025  93.5058 266.6051 15.08841124 70737,6917.877,95.437,540.451,539.033,0.0
52127.0,STARLINK-3715,PAYLOAD,2023-06-19 11:44:03,15.08837416,0.0001051,53.2151,212.2629,94.6046,265.5066,0.00014369,2e-05,0.0,0 STARLINK-3715,1 52127U 22029AR  23170.48893403  .00002000  00000-0  14369-3 0  9992,2 52127  53.2151 212.2629 0001051  94.6046 265.5066 15.08837416 70837,6917.888,95.438,540.48,539.026,0.0
52127.0,STARLINK-3715,PAYLOAD,2023-06-19 19:40:59,15.08838527,0.0001042,53.2152,210.7762,94.1025,266.0086,0.00012213,1.656e-05,0.0,0 STARLINK-3715,1 52127U 22029AR  23170.82013407  .00001656  00000-0  12213-3 0  9990,2 52127  53.2152 210.7762 0001042  94.1025 266.0086 15.08838527 70888,6917.885,95.438,540.471,539.029,0.0
52127.0,STARLINK-3715,PAYLOAD,2023-06-20 11:34:50,15.08843176,0.0001045,53.2151,207.8027,93.985,266.1262,0.00011899,1.607e-05,0.0,0 STARLINK-3715,1 52127U 22029AR  23171.48253216  .00001607  00000-0  11899-3 0  9992,2 52127  53.2151 207.8027 0001045  93.9850 266.1262 15.08843176 70988,6917.871,95.437,540.459,539.013,0.0
52127.0,STARLINK-3715,PAYLOAD,2023-06-21 11:25:37,15.08844119,0.000102,53.2149,203.3418,93.1093,267.0016,0.00013777,1.906e-05,0.0,0 STARLINK-3715,1 52127U 22029AR  23172.47613200  .00001906  00000-0  13777-3 0  9994,2 52127  53.2149 203.3418 0001020  93.1093 267.0016 15.08844119 71137,6917.868,95.437,540.438,539.027,0.0
52127.0,STARLINK-3715,PAYLOAD,2023-06-22 01:44:06,15.08838063,0.0001167,53.2155,200.6646,87.4781,272.6345,2.7256e-05,1.46e-06,0.0,0 STARLINK-3715,1 52127U 22029AR  23173.07229629  .00000146  00000-0  27256-4 0  9992,2 52127  53.2155 200.6646 0001167  87.4781 272.6345 15.08838063 71227,6917.886,95.438,540.559,538.944,0.0
52127.0,STARLINK-3715,PAYLOAD,2023-06-23 07:56:25,15.08846964,0.0001031,53.2159,195.0144,85.1821,274.9289,9.8925e-05,1.287e-05,0.0,0 STARLINK-3715,1 52127U 22029AR  23174.33085035  .00001287  00000-0  98925-4 0  9991,2 52127  53.2159 195.0144 0001031  85.1821 274.9289 15.08846964 71413,6917.859,95.437,540.437,539.011,0.0
52127.0,STARLINK-3715,PAYLOAD,2023-06-24 01:25:40,15.08841966,0.0001008,53.2159,191.7437,82.0526,278.058,0.00010151,1.328e-05,0.0,0 STARLINK-3715,1 52127U 22029AR  23175.05949277  .00001328  00000-0  10151-3 0  9998,2 52127  53.2159 191.7437 0001008  82.0526 278.0580 15.08841966 71521,6917.874,95.437,540.437,539.042,0.0
52127.0,STARLINK-3715,PAYLOAD,2023-06-25 01:16:27,15.08840065,0.0001032,53.2159,187.2834,81.0998,279.0111,1.6787e-05,-2.1e-07,0.0,0 STARLINK-3715,1 52127U 22029AR  23176.05309533 -.00000021  00000-0  16787-4 0  9996,2 52127  53.2159 187.2834 0001032  81.0998 279.0111 15.08840065 71677,6917.88,95.438,540.459,539.031,0.0
52127.0,STARLINK-3715,PAYLOAD,2023-06-26 07:28:47,15.08838305,0.0001063,53.216,181.6342,80.8081,279.3032,3.4556e-05,2.62e-06,0.0,0 STARLINK-3715,1 52127U 22029AR  23177.31165655  .00000262  00000-0  34556-4 0  9991,2 52127  53.2160 181.6342 0001063  80.8081 279.3032 15.08838305 71865,6917.886,95.438,540.486,539.015,0.0
